FLOCK 4BE-27            
1 60513U 24149AX  26068.75339182  .00011439  00000+0  36576-3 0  9992
2 60513  97.3862 150.6783 0002732 305.8980  54.2008 15.32593322 86906
STARLINK-33991          
1 64122U 25110AC  26068.14438285  .00050042  00000+0  16904-2 0  9993
2 64122  53.1603  28.9602 0001268  89.8434 270.2712 15.30199785 45799
